CCSDS_OMM_VERS = 2.0
CREATION_DATE  = 
ORIGINATOR     = 

OBJECT_NAME    = STARLINK-35574
OBJECT_ID      = 2025-236AB
CENTER_NAME    = EARTH
REF_FRAME      = TEME
TIME_SYSTEM    = UTC
MEAN_ELEMENT_THEORY = SGP/SGP4

EPOCH          = 2025-11-04T22:00:01.999584
MEAN_MOTION    = 15.74149847
ECCENTRICITY   = .00011613
INCLINATION    = 53.1577
RA_OF_ASC_NODE = 327.7983
ARG_OF_PERICENTER = 91.9548
MEAN_ANOMALY   = 146.7034

EPHEMERIS_TYPE = 0
CLASSIFICATION_TYPE = U
NORAD_CAT_ID   = 66111
ELEMENT_SET_NO = 999
REV_AT_EPOCH   = 373
BSTAR          = .64050901E-3
MEAN_MOTION_DOT = .94068E-3
MEAN_MOTION_DDOT = 0

CCSDS_OMM_VERS = 2.0
CREATION_DATE  = 
ORIGINATOR     = 

OBJECT_NAME    = STARLINK-35531
OBJECT_ID      = 2025-236AC
CENTER_NAME    = EARTH
REF_FRAME      = TEME
TIME_SYSTEM    = UTC
MEAN_ELEMENT_THEORY = SGP/SGP4

EPOCH          = 2025-11-04T22:00:01.999584
MEAN_MOTION    = 15.74147794
ECCENTRICITY   = .00009154
INCLINATION    = 53.1578
RA_OF_ASC_NODE = 327.7902
ARG_OF_PERICENTER = 109.5035
MEAN_ANOMALY   = 132.9813

EPHEMERIS_TYPE = 0
CLASSIFICATION_TYPE = U
NORAD_CAT_ID   = 66112
ELEMENT_SET_NO = 999
REV_AT_EPOCH   = 379
BSTAR          = .7259498E-3
MEAN_MOTION_DOT = .106854E-2
MEAN_MOTION_DDOT = 0

CCSDS_OMM_VERS = 2.0
CREATION_DATE  = 
ORIGINATOR     = 

OBJECT_NAME    = STARLINK-35491
OBJECT_ID      = 2025-236AD
CENTER_NAME    = EARTH
REF_FRAME      = TEME
TIME_SYSTEM    = UTC
MEAN_ELEMENT_THEORY = SGP/SGP4

EPOCH          = 2025-11-04T22:00:01.999584
MEAN_MOTION    = 15.74149683
ECCENTRICITY   = .0000779
INCLINATION    = 53.1578
RA_OF_ASC_NODE = 327.7944
ARG_OF_PERICENTER = 88.3497
MEAN_ANOMALY   = 152.2291

EPHEMERIS_TYPE = 0
CLASSIFICATION_TYPE = U
NORAD_CAT_ID   = 66113
ELEMENT_SET_NO = 999
REV_AT_EPOCH   = 379
BSTAR          = .59088357E-3
MEAN_MOTION_DOT = .86653E-3
MEAN_MOTION_DDOT = 0

CCSDS_OMM_VERS = 2.0
CREATION_DATE  = 
ORIGINATOR     = 

OBJECT_NAME    = STARLINK-35496
OBJECT_ID      = 2025-237A
CENTER_NAME    = EARTH
REF_FRAME      = TEME
TIME_SYSTEM    = UTC
MEAN_ELEMENT_THEORY = SGP/SGP4

EPOCH          = 2025-11-04T22:00:01.999584
MEAN_MOTION    = 15.74237501
ECCENTRICITY   = .00005518
INCLINATION    = 53.1559
RA_OF_ASC_NODE = 267.5578
ARG_OF_PERICENTER = 111.3451
MEAN_ANOMALY   = 101.1405

EPHEMERIS_TYPE = 0
CLASSIFICATION_TYPE = U
NORAD_CAT_ID   = 66114
ELEMENT_SET_NO = 999
REV_AT_EPOCH   = 340
BSTAR          = -.53782819E-3
MEAN_MOTION_DOT = -.78823E-3
MEAN_MOTION_DDOT = 0

CCSDS_OMM_VERS = 2.0
CREATION_DATE  = 
ORIGINATOR     = 

OBJECT_NAME    = STARLINK-35428
OBJECT_ID      = 2025-237B
CENTER_NAME    = EARTH
REF_FRAME      = TEME
TIME_SYSTEM    = UTC
MEAN_ELEMENT_THEORY = SGP/SGP4

EPOCH          = 2025-11-04T22:00:01.999584
MEAN_MOTION    = 15.74168358
ECCENTRICITY   = .0000797
INCLINATION    = 53.1559
RA_OF_ASC_NODE = 267.5539
ARG_OF_PERICENTER = 106.6685
MEAN_ANOMALY   = 107.7594

EPHEMERIS_TYPE = 0
CLASSIFICATION_TYPE = U
NORAD_CAT_ID   = 66115
ELEMENT_SET_NO = 999
REV_AT_EPOCH   = 340
BSTAR          = .2431544E-3
MEAN_MOTION_DOT = .35098E-3
MEAN_MOTION_DDOT = 0

CCSDS_OMM_VERS = 2.0
CREATION_DATE  = 
ORIGINATOR     = 

OBJECT_NAME    = STARLINK-35573
OBJECT_ID      = 2025-237C
CENTER_NAME    = EARTH
REF_FRAME      = TEME
TIME_SYSTEM    = UTC
MEAN_ELEMENT_THEORY = SGP/SGP4

EPOCH          = 2025-11-04T22:00:01.999584
MEAN_MOTION    = 15.74173228
ECCENTRICITY   = .00010488
INCLINATION    = 53.1559
RA_OF_ASC_NODE = 267.5499
ARG_OF_PERICENTER = 96.4135
MEAN_ANOMALY   = 119.9262

EPHEMERIS_TYPE = 0
CLASSIFICATION_TYPE = U
NORAD_CAT_ID   = 66116
ELEMENT_SET_NO = 999
REV_AT_EPOCH   = 340
BSTAR          = .21245329E-3
MEAN_MOTION_DOT = .30577E-3
MEAN_MOTION_DDOT = 0

CCSDS_OMM_VERS = 2.0
CREATION_DATE  = 
ORIGINATOR     = 

OBJECT_NAME    = STARLINK-35572
OBJECT_ID      = 2025-237D
CENTER_NAME    = EARTH
REF_FRAME      = TEME
TIME_SYSTEM    = UTC
MEAN_ELEMENT_THEORY = SGP/SGP4

EPOCH          = 2025-11-04T22:00:01.999584
MEAN_MOTION    = 15.74240971
ECCENTRICITY   = .00013249
INCLINATION    = 53.1557
RA_OF_ASC_NODE = 267.5419
ARG_OF_PERICENTER = 99.5923
MEAN_ANOMALY   = 120.5821

EPHEMERIS_TYPE = 0
CLASSIFICATION_TYPE = U
NORAD_CAT_ID   = 66117
ELEMENT_SET_NO = 999
REV_AT_EPOCH   = 340
BSTAR          = -.83038099E-3
MEAN_MOTION_DOT = -.120788E-2
MEAN_MOTION_DDOT = 0

CCSDS_OMM_VERS = 2.0
CREATION_DATE  = 
ORIGINATOR     = 

OBJECT_NAME    = STARLINK-35468
OBJECT_ID      = 2025-237E
CENTER_NAME    = EARTH
REF_FRAME      = TEME
TIME_SYSTEM    = UTC
MEAN_ELEMENT_THEORY = SGP/SGP4

EPOCH          = 2025-11-04T22:00:01.999584
MEAN_MOTION    = 15.74171053
ECCENTRICITY   = .00008986
INCLINATION    = 53.1558
RA_OF_ASC_NODE = 267.5458
ARG_OF_PERICENTER = 97.3587
MEAN_ANOMALY   = 120.9051

EPHEMERIS_TYPE = 0
CLASSIFICATION_TYPE = U
NORAD_CAT_ID   = 66118
ELEMENT_SET_NO = 999
REV_AT_EPOCH   = 340
BSTAR          = .19379406E-3
MEAN_MOTION_DOT = .27824E-3
MEAN_MOTION_DDOT = 0

CCSDS_OMM_VERS = 2.0
CREATION_DATE  = 
ORIGINATOR     = 

OBJECT_NAME    = STARLINK-35547
OBJECT_ID      = 2025-237F
CENTER_NAME    = EARTH
REF_FRAME      = TEME
TIME_SYSTEM    = UTC
MEAN_ELEMENT_THEORY = SGP/SGP4

EPOCH          = 2025-11-04T22:00:01.999584
MEAN_MOTION    = 15.74217135
ECCENTRICITY   = .00013343
INCLINATION    = 53.1548
RA_OF_ASC_NODE = 267.5296
ARG_OF_PERICENTER = 91.4313
MEAN_ANOMALY   = 134.4547

EPHEMERIS_TYPE = 0
CLASSIFICATION_TYPE = U
NORAD_CAT_ID   = 66119
ELEMENT_SET_NO = 999
REV_AT_EPOCH   = 340
BSTAR          = -.10171442E-3
MEAN_MOTION_DOT = -.15517E-3
MEAN_MOTION_DDOT = 0

CCSDS_OMM_VERS = 2.0
CREATION_DATE  = 
ORIGINATOR     = 

OBJECT_NAME    = STARLINK-35553
OBJECT_ID      = 2025-237G
CENTER_NAME    = EARTH
REF_FRAME      = TEME
TIME_SYSTEM    = UTC
MEAN_ELEMENT_THEORY = SGP/SGP4

EPOCH          = 2025-11-04T22:00:01.999584
MEAN_MOTION    = 15.74228678
ECCENTRICITY   = .00012309
INCLINATION    = 53.1553
RA_OF_ASC_NODE = 267.5382
ARG_OF_PERICENTER = 104.5032
MEAN_ANOMALY   = 117.5889

EPHEMERIS_TYPE = 0
CLASSIFICATION_TYPE = U
NORAD_CAT_ID   = 66120
ELEMENT_SET_NO = 999
REV_AT_EPOCH   = 340
BSTAR          = -.47127107E-3
MEAN_MOTION_DOT = -.69203E-3
MEAN_MOTION_DDOT = 0

CCSDS_OMM_VERS = 2.0
CREATION_DATE  = 
ORIGINATOR     = 

OBJECT_NAME    = STARLINK-35631
OBJECT_ID      = 2025-237H
CENTER_NAME    = EARTH
REF_FRAME      = TEME
TIME_SYSTEM    = UTC
MEAN_ELEMENT_THEORY = SGP/SGP4

EPOCH          = 2025-11-04T22:00:01.999584
MEAN_MOTION    = 15.74222772
ECCENTRICITY   = .00007138
INCLINATION    = 53.1555
RA_OF_ASC_NODE = 267.5329
ARG_OF_PERICENTER = 119.7547
MEAN_ANOMALY   = 104.2545

EPHEMERIS_TYPE = 0
CLASSIFICATION_TYPE = U
NORAD_CAT_ID   = 66121
ELEMENT_SET_NO = 999
REV_AT_EPOCH   = 340
BSTAR          = -.43100551E-3
MEAN_MOTION_DOT = -.63367E-3
MEAN_MOTION_DDOT = 0

CCSDS_OMM_VERS = 2.0
CREATION_DATE  = 
ORIGINATOR     = 

OBJECT_NAME    = STARLINK-35653
OBJECT_ID      = 2025-237J
CENTER_NAME    = EARTH
REF_FRAME      = TEME
TIME_SYSTEM    = UTC
MEAN_ELEMENT_THEORY = SGP/SGP4

EPOCH          = 2025-11-04T22:00:01.999584
MEAN_MOTION    = 15.74170536
ECCENTRICITY   = .00014284
INCLINATION    = 53.1557
RA_OF_ASC_NODE = 267.5256
ARG_OF_PERICENTER = 123.4989
MEAN_ANOMALY   = 104.2861

EPHEMERIS_TYPE = 0
CLASSIFICATION_TYPE = U
NORAD_CAT_ID   = 66122
ELEMENT_SET_NO = 999
REV_AT_EPOCH   = 340
BSTAR          = .89076733E-3
MEAN_MOTION_DOT = .13178E-2
MEAN_MOTION_DDOT = 0

