STARLINK-35574          
1 66111U 25236AB  25308.91668981  .00094068  00000+0  64051-3 0  9994
2 66111  53.1577 327.7983 0001161  91.9548 146.7034 15.74149847  3737
STARLINK-35531          
1 66112U 25236AC  25308.91668981  .00106854  00000+0  72595-3 0  9994
2 66112  53.1578 327.7902 0000915 109.5035 132.9813 15.74147794  3790
STARLINK-35491          
1 66113U 25236AD  25308.91668981  .00086653  00000+0  59088-3 0  9991
2 66113  53.1578 327.7944 0000779  88.3497 152.2291 15.74149683  3795
STARLINK-35496          
1 66114U 25237A   25308.91668981 -.00078823  00000+0 -53783-3 0  9991
2 66114  53.1559 267.5578 0000551 111.3451 101.1405 15.74237501  3409
STARLINK-35428          
1 66115U 25237B   25308.91668981  .00035098  00000+0  24315-3 0  9996
2 66115  53.1559 267.5539 0000797 106.6685 107.7594 15.74168358  3409
STARLINK-35573          
1 66116U 25237C   25308.91668981  .00030577  00000+0  21245-3 0  9993
2 66116  53.1559 267.5499 0001048  96.4135 119.9262 15.74173228  3400
STARLINK-35572          
1 66117U 25237D   25308.91668981 -.00120788  00000+0 -83038-3 0  9998
2 66117  53.1557 267.5419 0001324  99.5923 120.5821 15.74240971  3406
STARLINK-35468          
1 66118U 25237E   25308.91668981  .00027824  00000+0  19379-3 0  9991
2 66118  53.1558 267.5458 0000898  97.3587 120.9051 15.74171053  3401
STARLINK-35547          
1 66119U 25237F   25308.91668981 -.00015517  00000+0 -10171-3 0  9991
2 66119  53.1548 267.5296 0001334  91.4313 134.4547 15.74217135  3401
STARLINK-35553          
1 66120U 25237G   25308.91668981 -.00069203  00000+0 -47127-3 0  9995
2 66120  53.1553 267.5382 0001230 104.5032 117.5889 15.74228678  3409
STARLINK-35631          
1 66121U 25237H   25308.91668981 -.00063367  00000+0 -43101-3 0  9999
2 66121  53.1555 267.5329 0000713 119.7547 104.2545 15.74222772  3408
STARLINK-35653          
1 66122U 25237J   25308.91668981  .00131780  00000+0  89077-3 0  9995
2 66122  53.1557 267.5256 0001428 123.4989 104.2861 15.74170536  3407
